[
    {
        "Altitude(m)": 554605.4521232595,
        "Argument of Periapsis(deg)": 0.019868973332140504,
        "Eccentricity": 0.0,
        "Inclination(deg)": 53.0,
        "Latitude(deg)": -2.506980027173228,
        "Longitude(deg)": -110.50008470026172,
        "Mean Anomaly(deg)": 183.00207860273272,
        "RAAN(deg)": 169.97043010558406,
        "Satellite Name": "Starlink Shell 1 757",
        "Satellite Number": 757,
        "Semi-Major Axis(m)": 6931778.249405717,
        "Time(s)": 570
    },
    {
        "Altitude(m)": 554685.9820446753,
        "Argument of Periapsis(deg)": 0.02021755181165174,
        "Eccentricity": 0.0,
        "Inclination(deg)": 53.0,
        "Latitude(deg)": -3.010523306752157,
        "Longitude(deg)": -110.16388908599461,
        "Mean Anomaly(deg)": 183.62890980628944,
        "RAAN(deg)": 169.96991133550657,
        "Satellite Name": "Starlink Shell 1 757",
        "Satellite Number": 757,
        "Semi-Major Axis(m)": 6931778.249405717,
        "Time(s)": 580
    },
    {
        "Altitude(m)": 554769.2362654151,
        "Argument of Periapsis(deg)": 0.020566130291162974,
        "Eccentricity": 0.0,
        "Inclination(deg)": 53.0,
        "Latitude(deg)": -3.513919874300101,
        "Longitude(deg)": -109.82735488021761,
        "Mean Anomaly(deg)": 184.2557410098462,
        "RAAN(deg)": 169.9693925654291,
        "Satellite Name": "Starlink Shell 1 757",
        "Satellite Number": 757,
        "Semi-Major Axis(m)": 6931778.249405717,
        "Time(s)": 590
    },
    {
        "Altitude(m)": 554855.1980748913,
        "Argument of Periapsis(deg)": 0.020914708770674213,
        "Eccentricity": 0.0,
        "Inclination(deg)": 53.0,
        "Latitude(deg)": -4.017146616462857,
        "Longitude(deg)": -109.49042406717491,
        "Mean Anomaly(deg)": 184.8825722134029,
        "RAAN(deg)": 169.96887379535164,
        "Satellite Name": "Starlink Shell 1 757",
        "Satellite Number": 757,
        "Semi-Major Axis(m)": 6931778.249405717,
        "Time(s)": 600
    },
    {
        "Altitude(m)": 554943.8494325402,
        "Argument of Periapsis(deg)": 0.021263287250185448,
        "Eccentricity": 0.0,
        "Inclination(deg)": 53.0,
        "Latitude(deg)": -4.520180341640906,
        "Longitude(deg)": -109.15303846053149,
        "Mean Anomaly(deg)": 185.5094034169596,
        "RAAN(deg)": 169.96835502527418,
        "Satellite Name": "Starlink Shell 1 757",
        "Satellite Number": 757,
        "Semi-Major Axis(m)": 6931778.249405717,
        "Time(s)": 610
    },
    {
        "Altitude(m)": 555035.1709741105,
        "Argument of Periapsis(deg)": 0.021611865729696686,
        "Eccentricity": 0.0,
        "Inclination(deg)": 53.0,
        "Latitude(deg)": -5.022997768016451,
        "Longitude(deg)": -108.81513917368892,
        "Mean Anomaly(deg)": 186.13623462051632,
        "RAAN(deg)": 169.9678362551967,
        "Satellite Name": "Starlink Shell 1 757",
        "Satellite Number": 757,
        "Semi-Major Axis(m)": 6931778.249405717,
        "Time(s)": 620
    },
    {
        "Altitude(m)": 555129.1420185572,
        "Argument of Periapsis(deg)": 0.02196044420920792,
        "Eccentricity": 0.0,
        "Inclination(deg)": 53.0,
        "Latitude(deg)": -5.525575511490249,
        "Longitude(deg)": -108.47666777102076,
        "Mean Anomaly(deg)": 186.76306582407307,
        "RAAN(deg)": 169.96731748511922,
        "Satellite Name": "Starlink Shell 1 757",
        "Satellite Number": 757,
        "Semi-Major Axis(m)": 6931778.249405717,
        "Time(s)": 630
    },
    {
        "Altitude(m)": 555225.740575629,
        "Argument of Periapsis(deg)": 0.02230902268871916,
        "Eccentricity": 0.0,
        "Inclination(deg)": 53.0,
        "Latitude(deg)": -6.027890073522705,
        "Longitude(deg)": -108.1375648975927,
        "Mean Anomaly(deg)": 187.3898970276298,
        "RAAN(deg)": 169.96679871504173,
        "Satellite Name": "Starlink Shell 1 757",
        "Satellite Number": 757,
        "Semi-Major Axis(m)": 6931778.249405717,
        "Time(s)": 640
    },
    {
        "Altitude(m)": 555324.9433541138,
        "Argument of Periapsis(deg)": 0.022657601168230398,
        "Eccentricity": 0.0,
        "Inclination(deg)": 53.0,
        "Latitude(deg)": -6.529917828861052,
        "Longitude(deg)": -107.79777143027664,
        "Mean Anomaly(deg)": 188.0167282311865,
        "RAAN(deg)": 169.96627994496427,
        "Satellite Name": "Starlink Shell 1 757",
        "Satellite Number": 757,
        "Semi-Major Axis(m)": 6931778.249405717,
        "Time(s)": 650
    },
    {
        "Altitude(m)": 555426.7257706991,
        "Argument of Periapsis(deg)": 0.023006179647741636,
        "Eccentricity": 0.0,
        "Inclination(deg)": 53.0,
        "Latitude(deg)": -7.03163501314674,
        "Longitude(deg)": -107.45722794782476,
        "Mean Anomaly(deg)": 188.64355943474317,
        "RAAN(deg)": 169.9657611748868,
        "Satellite Name": "Starlink Shell 1 757",
        "Satellite Number": 757,
        "Semi-Major Axis(m)": 6931778.249405717,
        "Time(s)": 660
    },
    {
        "Altitude(m)": 555531.0619595301,
        "Argument of Periapsis(deg)": 0.023354758127252868,
        "Eccentricity": 0.0,
        "Inclination(deg)": 53.0,
        "Latitude(deg)": -7.533017710388519,
        "Longitude(deg)": -107.11587420087103,
        "Mean Anomaly(deg)": 189.2703906382999,
        "RAAN(deg)": 169.96524240480935,
        "Satellite Name": "Starlink Shell 1 757",
        "Satellite Number": 757,
        "Semi-Major Axis(m)": 6931778.249405717,
        "Time(s)": 670
    },
    {
        "Altitude(m)": 555637.924782363,
        "Argument of Periapsis(deg)": 0.023703336606764106,
        "Eccentricity": 0.0,
        "Inclination(deg)": 53.0,
        "Latitude(deg)": -8.034041840289321,
        "Longitude(deg)": -106.77365009472965,
        "Mean Anomaly(deg)": 189.89722184185658,
        "RAAN(deg)": 169.96472363473185,
        "Satellite Name": "Starlink Shell 1 757",
        "Satellite Number": 757,
        "Semi-Major Axis(m)": 6931778.249405717,
        "Time(s)": 680
    },
    {
        "Altitude(m)": 555747.2858393602,
        "Argument of Periapsis(deg)": 0.024051915086275345,
        "Eccentricity": 0.0,
        "Inclination(deg)": 53.0,
        "Latitude(deg)": -8.534683145416906,
        "Longitude(deg)": -106.43049515924027,
        "Mean Anomaly(deg)": -169.47594695458665,
        "RAAN(deg)": 169.9642048646544,
        "Satellite Name": "Starlink Shell 1 757",
        "Satellite Number": 757,
        "Semi-Major Axis(m)": 6931778.249405717,
        "Time(s)": 690
    },
    {
        "Altitude(m)": 555859.115480549,
        "Argument of Periapsis(deg)": 0.024400493565786583,
        "Eccentricity": 0.0,
        "Inclination(deg)": 53.0,
        "Latitude(deg)": -9.034917178206063,
        "Longitude(deg)": -106.08634801853084,
        "Mean Anomaly(deg)": -168.84911575102996,
        "RAAN(deg)": 169.9636860945769,
        "Satellite Name": "Starlink Shell 1 757",
        "Satellite Number": 757,
        "Semi-Major Axis(m)": 6931778.249405717,
        "Time(s)": 700
    },
    {
        "Altitude(m)": 555973.3828178615,
        "Argument of Periapsis(deg)": 0.024749072045297815,
        "Eccentricity": 0.0,
        "Inclination(deg)": 53.0,
        "Latitude(deg)": -9.534719287779112,
        "Longitude(deg)": -105.74114737357064,
        "Mean Anomaly(deg)": -168.2222845474732,
        "RAAN(deg)": 169.96316732449944,
        "Satellite Name": "Starlink Shell 1 757",
        "Satellite Number": 757,
        "Semi-Major Axis(m)": 6931778.249405717,
        "Time(s)": 710
    },
    {
        "Altitude(m)": 556090.0557378095,
        "Argument of Periapsis(deg)": 0.025097650524809053,
        "Eccentricity": 0.0,
        "Inclination(deg)": 53.0,
        "Latitude(deg)": -10.034064606574445,
        "Longitude(deg)": -105.39483147176598,
        "Mean Anomaly(deg)": -167.59545334391655,
        "RAAN(deg)": 169.96264855442197,
        "Satellite Name": "Starlink Shell 1 757",
        "Satellite Number": 757,
        "Semi-Major Axis(m)": 6931778.249405717,
        "Time(s)": 720
    },
    {
        "Altitude(m)": 556209.1009147676,
        "Argument of Periapsis(deg)": 0.02544622900432029,
        "Eccentricity": 0.0,
        "Inclination(deg)": 53.0,
        "Latitude(deg)": -10.532928036771102,
        "Longitude(deg)": -105.04733757647168,
        "Mean Anomaly(deg)": -166.9686221403598,
        "RAAN(deg)": 169.96212978434448,
        "Satellite Name": "Starlink Shell 1 757",
        "Satellite Number": 757,
        "Semi-Major Axis(m)": 6931778.249405717,
        "Time(s)": 730
    },
    {
        "Altitude(m)": 556330.4838248707,
        "Argument of Periapsis(deg)": 0.02579480748383153,
        "Eccentricity": 0.0,
        "Inclination(deg)": 53.0,
        "Latitude(deg)": -11.031284236495306,
        "Longitude(deg)": -104.69860294929508,
        "Mean Anomaly(deg)": -166.34179093680305,
        "RAAN(deg)": 169.96161101426702,
        "Satellite Name": "Starlink Shell 1 757",
        "Satellite Number": 757,
        "Semi-Major Axis(m)": 6931778.249405717,
        "Time(s)": 740
    },
    {
        "Altitude(m)": 556454.1687604617,
        "Argument of Periapsis(deg)": 0.026143385963342765,
        "Eccentricity": 0.0,
        "Inclination(deg)": 53.0,
        "Latitude(deg)": -11.529107605799629,
        "Longitude(deg)": -104.34856431944691,
        "Mean Anomaly(deg)": -165.71495973324636,
        "RAAN(deg)": 169.96109224418956,
        "Satellite Name": "Starlink Shell 1 757",
        "Satellite Number": 757,
        "Semi-Major Axis(m)": 6931778.249405717,
        "Time(s)": 750
    }
]